#dP2021  1  3  0  0  0.00000000     289 ORBIT ITRF  BHN ESOC                    
## 2139      0.00000000   300.00000000 59217 0.0000000000000                    
+  109   G13G28G21G22G07G05G20G31G17G15G16G29G12G19G02G25G01                    
+        G30G24G27G06G09G03G32G26G08G10G04G18G23G14R09R11R20                    
+        R19R13R01R22R16R08R03R07R02R17R14R18R21R05R15R12R04                    
+        R24E11E12E19E18E14E26E24E30E08E09E01E02E07E03E04E05                    
+        E21E25E27E31E36E13E15E33C11C12C14C19C20C27C28C22C21                    
+        C29C30C23C24C26C25C32C33C35C34C36C37C06C07C08C09C10                    
+        C13C16C38C39J01J02J03  0  0  0  0  0  0  0  0  0  0                    
++         5  5  5  5  4  5  4  5  5  4  5  5  4  5  5  4  5                    
++         5  5  5  4  4  5  5  5  5  4  5  4  5  5  5  5  7                    
++         7  6  6  6  5  5  5  5  5  5  5  5  5  5  5  5  5                    
++         5  5  5  5  5  5  5  5  6  5  5  5  5  5  5  5  5                    
++         5  5  5  5  5  5  5  5  5  6  5  6  5  5  5  6  6                    
++         5  4  5  6  6  5  5  6  6  6  6  5  6  6  7  7  7                    
++         7  7  5  2  7  6  7  0  0  0  0  0  0  0  0  0  0                    
%c M  cc GPS ccc cccc cccc cccc cccc ccccc ccccc ccccc ccccc                    
%c cc cc ccc ccc cccc cccc cccc cccc ccccc ccccc ccccc ccccc                    
%f  0.0000000  0.000000000  0.00000000000  0.000000000000000                    
%f  0.0000000  0.000000000  0.00000000000  0.000000000000000                    
%i    0    0    0    0      0      0      0      0         0                    
%i    0    0    0    0      0      0      0      0         0                    
/* CCCCCCCCCCCCCCCCCCCCCCCCCCCCCCCCCCCCCCCCCCCCCCCCCCCCCCCCCCCCCCCCCCCCCCCCCCCCC
/* CCCCCCCCCCCCCCCCCCCCCCCCCCCCCCCCCCCCCCCCCCCCCCCCCCCCCCCCCCCCCCCCCCCCCCCCCCCCC
/* CCCCCCCCCCCCCCCCCCCCCCCCCCCCCCCCCCCCCCCCCCCCCCCCCCCCCCCCCCCCCCCCCCCCCCCCCCCCC
/* PCV:IGS        OL/AL:EOT11A   NONE     YN ORB:CoN CLK:CoN                    
*  2021  1  3 23 15  0.00000000                                                 
PG13 -13359.534091   9457.992857  20754.996989     82.042790                    
PG28 -22125.410199 -13372.356410   6209.153008    634.503708                    
PG21  17179.771895 -19887.497964  -1001.364602     83.646702                    
PG22  12339.503204 -12457.054341 -19709.507562   -704.380684                    
PG07  -2719.762110 -17194.320899  20253.817262      7.984478                    
PG05 -21941.422509   4715.781828  14196.344174    -30.056230                    
PG20  14166.923856  14740.128426  17031.462777    525.325022                    
PG31  19810.903724   -810.542291 -17965.102657    -91.694914                    
PG17 -13535.707628 -16203.793303 -15685.919369    375.677585                    
PG15  -5186.054189  20280.000638  15782.404396   -178.762432                    
PG16  22629.607096  -1233.280094  13990.562200   -259.902700                    
PG29   4276.914854  26190.512629   -155.130409   -268.919197                    
PG12  -7891.043517  12965.280688 -22025.013771     17.847278                    
PG19 -14962.199664  -8686.636878 -20458.024312    -56.601938                    
PG02 -20832.441014  12743.188010  -9785.239715   -562.000346                    
PG25   7398.711958  16515.928388 -19781.019115     52.639027                    
PG01  12068.942151 -21025.933134 -10682.527903    786.000018                    
PG30 -12739.109384  -9594.377791  21302.396994   -363.195472                    
PG24 -13990.721126  21605.361637  -5877.338646      4.164353                    
PG27  13632.019902  -6160.406742  21769.708810    -48.698002                    
PG06 -17814.842190  -1137.529228 -19618.408439     -4.626140                    
PG09  -7143.013031 -25557.644433    704.732254   -308.888412                    
PG03   3313.969489 -14747.188067 -21923.191615    -47.058659                    
PG32  15264.352649  14790.194724 -15939.434197     12.282366                    
PG26  26169.232248   4099.858751   3333.055388     24.565281                    
PG08   7286.587759 -18818.071514  17127.668691     -5.311339                    
PG10  22803.940067  11882.742062   7284.784108    -31.156996                    
PG04   2484.087989 -24247.184584 -10489.080623   -169.877309                    
PG18   4223.084625  15727.373738  20966.817243    338.480195                    
PG23  14712.548128  15376.119161  15887.066169    114.371380                    
PG14 -20942.616824 -13765.284499   8797.180639     79.107401                    
PR09  23691.877280   -643.477572  -9330.553981     16.634664                    
PR11   8445.680498 -12036.983472  20850.583798      4.908887                    
PR20  10189.482633   2272.342957  23287.296009   -430.360606                    
PR19    290.812965  20002.113939  15831.104442   -126.432636                    
PR13 -23545.700488    625.045277   9767.032825    -48.838752                    
PR01 -14130.805124 -20022.274938  -7103.953545     72.971624                    
PR22   7332.664299 -24306.962873  -1889.765475    -90.574985                    
PR16  12103.983959   7644.172636 -21169.284535     -9.839485                    
PR08  -3182.517453 -16879.785208 -18800.542459    -56.672315                    
PR03 -10651.288756   4385.844001  22789.984843     28.492790                    
PR07  10273.446165  -4813.870198 -22819.207026    -42.051621                    
PR02 -18472.209871 -10890.003924  13800.569139    461.376673                    
PR17 -12574.119565  16064.355944 -15271.000582    388.132187                    
PR14 -22417.571555   8964.690826  -8233.276554     59.443606                    
PR18  -7752.148825  24320.516446    721.982118     61.937883                    
PR21  12467.721970 -16968.356602  14426.516007   -177.869651                    
PR05  15182.126428  20032.282989   4429.585859     64.092403                    
PR15  -8248.246838  11990.376688 -20928.536292    106.053528                    
PR12 -10903.001072  -8127.378078  21598.987724    193.717847                    
PR04   3216.117515  16825.682012  18924.623279     68.469327                    
PR24 -10899.781549  -1503.261282 -22987.856690     26.459483                    
PE11 -18648.676581    937.326813 -22968.799408   6527.719561                    
PE12  -5667.574603 -18303.050257 -22548.506773   5424.449570                    
PE19    700.443886 -24612.921738 -16428.076883    169.519329                    
PE18   7608.227148 -20398.404386  13037.046614  -1401.504067                    
PE14 -17421.523453  12098.895747 -23418.817089  -1282.419380                    
PE26  20281.125313 -19397.346593   9436.311841   2306.355728                    
PE24 -29020.328891  -4498.740164   3568.876922   -670.655583                    
PE30  16559.894559  14551.387036 -19770.216549   3291.561285                    
PE08  15134.156828  25223.498424  -3259.399816   6067.321416                    
PE09 -20085.381030  -9963.833390  19328.852709   5810.878252                    
PE01   5265.226470 -15996.315538  24345.977835  -1017.295404                    
PE02  -5099.628146  16017.807069 -24361.074323    188.450300                    
PE07  20137.002785  10147.431620 -19173.713180   -483.083372                    
PE03   1049.384344  25676.874888  14671.057662   -383.368217                    
PE04 -14848.514967 -25434.884196   2953.389987   -681.529904                    
PE05 -13572.164425  10862.779244  23952.437667   -315.833603                    
PE21  23874.615938  -8642.499854  15223.550325   -640.894778                    
PE25 -23980.658421   8543.746424 -15087.261298   -523.591896                    
PE27  29185.600587   3976.284384  -3008.729378     58.552446                    
PE31 -17296.294924 -14193.940116  19382.514677   -477.046974                    
PE36 -20268.210745  19075.304966 -10064.309352    459.015423                    
PE13  18426.597234   -623.618446  23169.047128    409.606384                    
PE15   5734.496520  18206.162852  22637.623121    835.985428                    
PE33  10337.913136 -26308.012328  -8767.453687   -464.582461                    
PC11  -2530.331115  27662.128549   2472.011681   -862.097489                    
PC12 -12461.577225  20276.024180 -14509.647813    707.046736                    
PC14   4423.691086  19934.662779  19017.823041   -175.098276                    
PC19 -13695.740927 -20972.181935 -12294.369191    677.915473                    
PC20   3916.890575 -16352.783181 -22264.814761   -909.502373                    
PC27  15732.877742 -10959.023037  20257.997243    460.399843                    
PC28  13824.902881  10306.373283  21946.988391   -126.094521                    
PC22 -23834.028840 -13622.449896   5078.907448   -833.840434                    
PC21 -20034.226600   1680.815689  19371.782250   -778.771294                    
PC29  -4792.330316 -25302.178462 -10749.285144    333.660741                    
PC30   7736.043024 -25831.876534   7144.028083    426.347903                    
PC23  21911.837332   4020.151844 -16811.310007   -885.256190                    
PC24 -15424.556734  17816.394313 -14929.955815   -736.870495                    
PC26 -25698.607680  10808.585473    572.655509    965.952425                    
PC25   5648.171264  15193.081031 -22720.581709   -884.937031                    
PC32  20029.021241  -1816.385063 -19335.978413   -881.832535                    
PC33  13690.676250  20920.413843  12383.709088   -898.561224                    
PC35 -14146.162367 -10104.863181 -21820.058553   -482.469615                    
PC34  -7437.425780  26107.088139  -6524.794673   -771.342811                    
PC36  -4918.405561 -15468.426330  22721.555827   -786.116304                    
PC37  26136.434937  -9725.508574  -1340.052087   -861.105913                    
PC06 -11327.583328  37381.131943  16886.496554    105.638305                    
PC07 -12219.460176  23364.511781 -32685.615656   -193.144877                    
PC08 -24022.407984  28796.790850  18967.981120   -859.041050                    
PC09  -1533.141136  42359.134045   1053.289612    827.629332                    
PC10   2398.543638  28076.982307 -31041.849880   -110.592264                    
PC13 -10716.575666  29229.035474  28404.455516     82.275090                    
PC16  -9554.352281  38141.530191  15578.689383   -649.122609                    
PC38 -22168.526153  30340.247533  19016.188962    121.710513                    
PC39  -5491.393633  39554.654197  13721.520762     26.980969                    
PJ01 -26338.637584  21202.350955  30210.435880   -335.696230                    
PJ02 -34202.769018  15974.372954 -14273.914818      0.459015                    
PJ03 -19863.475532  32352.176585 -13883.368200     -5.279870                    
EOF                                                                             
